FLOCK 4G-33             
1 62685U 25009CE  26198.68101038  .00003035  00000+0  12154-3 0  9992
2 62685  97.3940 278.2076 0004939 204.3240 155.7766 15.25814817 83452
FLOCK 4H-1              
1 66704U 25276AQ  26198.77773958  .00002962  00000+0  13721-3 0  9999
2 66704  97.4167 271.9842 0002258 167.6942 192.4349 15.20868595 35081
FLOCK 4H-2              
1 66705U 25276AR  26198.94832348  .00003674  00000+0  16812-3 0  9993
2 66705  97.4160 272.2018 0001772 151.6918 208.4414 15.21142475 35118
FLOCK 4H-3              
1 66706U 25276AS  26197.75517764  .00003711  00000+0  17418-3 0  9999
2 66706  97.4232 270.9507 0002569 239.4240 120.6742 15.20255026 34917
FLOCK 4H-4              
1 66707U 25276AT  26198.77890116  .00003131  00000+0  14830-3 0  9999
2 66707  97.4212 271.8245 0003288 240.5957 119.4950 15.20053457 35060
FLOCK 4H-5              
1 66708U 25276AU  26198.76991634  .00003274  00000+0  15111-3 0  9997
2 66708  97.4162 271.9980 0001546 133.0385 227.0981 15.20920754 35083
FLOCK 4H-6              
1 66709U 25276AV  26198.94800050  .00003541  00000+0  16459-3 0  9992
2 66709  97.4215 272.2174 0002784 193.7294 166.3866 15.20622877 35104
FLOCK 4H-7              
1 66710U 25276AW  26198.93019257  .00003530  00000+0  16515-3 0  9995
2 66710  97.4173 271.9550 0000653 266.2728  93.8433 15.20399722 35096
FLOCK 4H-8              
1 66711U 25276AX  26198.92089118  .00003394  00000+0  15844-3 0  9990
2 66711  97.4212 272.0973 0001943 253.6415 106.4607 15.20507575 35099
FLOCK 4H-9              
1 66712U 25276AY  26198.67097290  .00003656  00000+0  16896-3 0  9992
2 66712  97.4203 271.9467 0002702 203.0912 157.0203 15.20806818 35064
FLOCK 4H-10             
1 66713U 25276AZ  26197.77540223  .00003553  00000+0  16728-3 0  9992
2 66713  97.4183 270.7720 0003020 246.7393 113.3524 15.20174970 34913
FLOCK 4H-11             
1 66714U 25276BA  26198.71680843  .00006550  00000+0  27851-3 0  9990
2 66714  97.4185 272.3037 0001616 229.7797 130.3299 15.23365377 35097
FLOCK 4H-12             
1 66715U 25276BB  26198.78956971  .00003174  00000+0  14695-3 0  9997
2 66715  97.4177 271.9988 0002175 174.2140 185.9121 15.20833521 35397
FLOCK 4H-13             
1 66716U 25276BC  26198.62842391  .00003802  00000+0  17489-3 0  9993
2 66716  97.4211 272.0147 0002099 139.9047 220.2344 15.20935310 35068
FLOCK 4H-14             
1 66717U 25276BD  26198.78547774  .00003376  00000+0  15366-3 0  9996
2 66717  97.4194 272.2172 0001931 139.0173 221.1208 15.21384475 34344
FLOCK 4H-15             
1 66718U 25276BE  26198.13884142  .00003798  00000+0  18003-3 0  9998
2 66718  97.4208 271.1347 0002686 264.6875  95.4054 15.19897337 34967
