{"fetched_at":"2026-07-18T06:27:47.409Z","source":"https://celestrak.org/NORAD/elements/gp.php?GROUP=planet&FORMAT=JSON","constellation":"superdove","records":[{"OBJECT_NAME":"FLOCK 4G-33","OBJECT_ID":"2025-009CE","EPOCH":"2026-07-17T16:20:39.296832","CLASSIFICATION_TYPE":"U","MEAN_MOTION":15.25814817,"ECCENTRICITY":0.00049395,"INCLINATION":97.394,"RA_OF_ASC_NODE":278.2076,"ARG_OF_PERICENTER":204.324,"MEAN_ANOMALY":155.7766,"EPHEMERIS_TYPE":0,"NORAD_CAT_ID":62685,"ELEMENT_SET_NO":999,"REV_AT_EPOCH":8345,"BSTAR":0.00012154018,"MEAN_MOTION_DOT":0.00003035,"MEAN_MOTION_DDOT":0},{"OBJECT_NAME":"FLOCK 4H-1","OBJECT_ID":"2025-276AQ","EPOCH":"2026-07-17T18:39:56.699712","CLASSIFICATION_TYPE":"U","MEAN_MOTION":15.20868595,"ECCENTRICITY":0.00022584,"INCLINATION":97.4167,"RA_OF_ASC_NODE":271.9842,"ARG_OF_PERICENTER":167.6942,"MEAN_ANOMALY":192.4349,"EPHEMERIS_TYPE":0,"NORAD_CAT_ID":66704,"ELEMENT_SET_NO":999,"REV_AT_EPOCH":3508,"BSTAR":0.00013720818,"MEAN_MOTION_DOT":0.00002962,"MEAN_MOTION_DDOT":0},{"OBJECT_NAME":"FLOCK 4H-2","OBJECT_ID":"2025-276AR","EPOCH":"2026-07-17T22:45:35.148672","CLASSIFICATION_TYPE":"U","MEAN_MOTION":15.21142475,"ECCENTRICITY":0.00017721,"INCLINATION":97.416,"RA_OF_ASC_NODE":272.2018,"ARG_OF_PERICENTER":151.6918,"MEAN_ANOMALY":208.4414,"EPHEMERIS_TYPE":0,"NORAD_CAT_ID":66705,"ELEMENT_SET_NO":999,"REV_AT_EPOCH":3511,"BSTAR":0.00016812412,"MEAN_MOTION_DOT":0.00003674,"MEAN_MOTION_DDOT":0},{"OBJECT_NAME":"FLOCK 4H-3","OBJECT_ID":"2025-276AS","EPOCH":"2026-07-16T18:07:27.348096","CLASSIFICATION_TYPE":"U","MEAN_MOTION":15.20255026,"ECCENTRICITY":0.00025698,"INCLINATION":97.4232,"RA_OF_ASC_NODE":270.9507,"ARG_OF_PERICENTER":239.424,"MEAN_ANOMALY":120.6742,"EPHEMERIS_TYPE":0,"NORAD_CAT_ID":66706,"ELEMENT_SET_NO":999,"REV_AT_EPOCH":3491,"BSTAR":0.00017418476,"MEAN_MOTION_DOT":0.00003711,"MEAN_MOTION_DDOT":0},{"OBJECT_NAME":"FLOCK 4H-4","OBJECT_ID":"2025-276AT","EPOCH":"2026-07-17T18:41:37.060224","CLASSIFICATION_TYPE":"U","MEAN_MOTION":15.20053457,"ECCENTRICITY":0.0003288,"INCLINATION":97.4212,"RA_OF_ASC_NODE":271.8245,"ARG_OF_PERICENTER":240.5957,"MEAN_ANOMALY":119.495,"EPHEMERIS_TYPE":0,"NORAD_CAT_ID":66707,"ELEMENT_SET_NO":999,"REV_AT_EPOCH":3506,"BSTAR":0.00014829661,"MEAN_MOTION_DOT":0.00003131,"MEAN_MOTION_DDOT":0},{"OBJECT_NAME":"FLOCK 4H-5","OBJECT_ID":"2025-276AU","EPOCH":"2026-07-17T18:28:40.771776","CLASSIFICATION_TYPE":"U","MEAN_MOTION":15.20920754,"ECCENTRICITY":0.00015461,"INCLINATION":97.4162,"RA_OF_ASC_NODE":271.998,"ARG_OF_PERICENTER":133.0385,"MEAN_ANOMALY":227.0981,"EPHEMERIS_TYPE":0,"NORAD_CAT_ID":66708,"ELEMENT_SET_NO":999,"REV_AT_EPOCH":3508,"BSTAR":0.00015111182,"MEAN_MOTION_DOT":0.00003274,"MEAN_MOTION_DDOT":0},{"OBJECT_NAME":"FLOCK 4H-6","OBJECT_ID":"2025-276AV","EPOCH":"2026-07-17T22:45:07.243200","CLASSIFICATION_TYPE":"U","MEAN_MOTION":15.20622877,"ECCENTRICITY":0.00027841,"INCLINATION":97.4215,"RA_OF_ASC_NODE":272.2174,"ARG_OF_PERICENTER":193.7294,"MEAN_ANOMALY":166.3866,"EPHEMERIS_TYPE":0,"NORAD_CAT_ID":66709,"ELEMENT_SET_NO":999,"REV_AT_EPOCH":3510,"BSTAR":0.00016459188,"MEAN_MOTION_DOT":0.00003541,"MEAN_MOTION_DDOT":0},{"OBJECT_NAME":"FLOCK 4H-7","OBJECT_ID":"2025-276AW","EPOCH":"2026-07-17T22:19:28.638048","CLASSIFICATION_TYPE":"U","MEAN_MOTION":15.20399722,"ECCENTRICITY":0.00006534,"INCLINATION":97.4173,"RA_OF_ASC_NODE":271.955,"ARG_OF_PERICENTER":266.2728,"MEAN_ANOMALY":93.8433,"EPHEMERIS_TYPE":0,"NORAD_CAT_ID":66710,"ELEMENT_SET_NO":999,"REV_AT_EPOCH":3509,"BSTAR":0.00016514981,"MEAN_MOTION_DOT":0.0000353,"MEAN_MOTION_DDOT":0},{"OBJECT_NAME":"FLOCK 4H-8","OBJECT_ID":"2025-276AX","EPOCH":"2026-07-17T22:06:04.997952","CLASSIFICATION_TYPE":"U","MEAN_MOTION":15.20507575,"ECCENTRICITY":0.00019435,"INCLINATION":97.4212,"RA_OF_ASC_NODE":272.0973,"ARG_OF_PERICENTER":253.6415,"MEAN_ANOMALY":106.4607,"EPHEMERIS_TYPE":0,"NORAD_CAT_ID":66711,"ELEMENT_SET_NO":999,"REV_AT_EPOCH":3509,"BSTAR":0.00015843945,"MEAN_MOTION_DOT":0.00003394,"MEAN_MOTION_DDOT":0},{"OBJECT_NAME":"FLOCK 4H-9","OBJECT_ID":"2025-276AY","EPOCH":"2026-07-17T16:06:12.058560","CLASSIFICATION_TYPE":"U","MEAN_MOTION":15.20806818,"ECCENTRICITY":0.00027024,"INCLINATION":97.4203,"RA_OF_ASC_NODE":271.9467,"ARG_OF_PERICENTER":203.0912,"MEAN_ANOMALY":157.0203,"EPHEMERIS_TYPE":0,"NORAD_CAT_ID":66712,"ELEMENT_SET_NO":999,"REV_AT_EPOCH":3506,"BSTAR":0.00016895798,"MEAN_MOTION_DOT":0.00003656,"MEAN_MOTION_DDOT":0},{"OBJECT_NAME":"FLOCK 4H-10","OBJECT_ID":"2025-276AZ","EPOCH":"2026-07-16T18:36:34.752672","CLASSIFICATION_TYPE":"U","MEAN_MOTION":15.2017497,"ECCENTRICITY":0.00030205,"INCLINATION":97.4183,"RA_OF_ASC_NODE":270.772,"ARG_OF_PERICENTER":246.7393,"MEAN_ANOMALY":113.3524,"EPHEMERIS_TYPE":0,"NORAD_CAT_ID":66713,"ELEMENT_SET_NO":999,"REV_AT_EPOCH":3491,"BSTAR":0.00016728143,"MEAN_MOTION_DOT":0.00003553,"MEAN_MOTION_DDOT":0},{"OBJECT_NAME":"FLOCK 4H-11","OBJECT_ID":"2025-276BA","EPOCH":"2026-07-17T17:12:12.248352","CLASSIFICATION_TYPE":"U","MEAN_MOTION":15.23365377,"ECCENTRICITY":0.00016168,"INCLINATION":97.4185,"RA_OF_ASC_NODE":272.3037,"ARG_OF_PERICENTER":229.7797,"MEAN_ANOMALY":130.3299,"EPHEMERIS_TYPE":0,"NORAD_CAT_ID":66714,"ELEMENT_SET_NO":999,"REV_AT_EPOCH":3509,"BSTAR":0.00027850607,"MEAN_MOTION_DOT":0.0000655,"MEAN_MOTION_DDOT":0},{"OBJECT_NAME":"FLOCK 4H-12","OBJECT_ID":"2025-276BB","EPOCH":"2026-07-17T18:56:58.822944","CLASSIFICATION_TYPE":"U","MEAN_MOTION":15.20833521,"ECCENTRICITY":0.00021757,"INCLINATION":97.4177,"RA_OF_ASC_NODE":271.9988,"ARG_OF_PERICENTER":174.214,"MEAN_ANOMALY":185.9121,"EPHEMERIS_TYPE":0,"NORAD_CAT_ID":66715,"ELEMENT_SET_NO":999,"REV_AT_EPOCH":3539,"BSTAR":0.00014694981,"MEAN_MOTION_DOT":0.00003174,"MEAN_MOTION_DDOT":0},{"OBJECT_NAME":"FLOCK 4H-13","OBJECT_ID":"2025-276BC","EPOCH":"2026-07-17T15:04:55.825824","CLASSIFICATION_TYPE":"U","MEAN_MOTION":15.2093531,"ECCENTRICITY":0.0002099,"INCLINATION":97.4211,"RA_OF_ASC_NODE":272.0147,"ARG_OF_PERICENTER":139.9047,"MEAN_ANOMALY":220.2344,"EPHEMERIS_TYPE":0,"NORAD_CAT_ID":66716,"ELEMENT_SET_NO":999,"REV_AT_EPOCH":3506,"BSTAR":0.00017489,"MEAN_MOTION_DOT":0.00003802,"MEAN_MOTION_DDOT":0},{"OBJECT_NAME":"FLOCK 4H-14","OBJECT_ID":"2025-276BD","EPOCH":"2026-07-17T18:51:05.276736","CLASSIFICATION_TYPE":"U","MEAN_MOTION":15.21384475,"ECCENTRICITY":0.00019319,"INCLINATION":97.4194,"RA_OF_ASC_NODE":272.2172,"ARG_OF_PERICENTER":139.0173,"MEAN_ANOMALY":221.1208,"EPHEMERIS_TYPE":0,"NORAD_CAT_ID":66717,"ELEMENT_SET_NO":999,"REV_AT_EPOCH":3434,"BSTAR":0.00015365729,"MEAN_MOTION_DOT":0.00003376,"MEAN_MOTION_DDOT":0},{"OBJECT_NAME":"FLOCK 4H-15","OBJECT_ID":"2025-276BE","EPOCH":"2026-07-17T03:19:55.898688","CLASSIFICATION_TYPE":"U","MEAN_MOTION":15.19897337,"ECCENTRICITY":0.00026864,"INCLINATION":97.4208,"RA_OF_ASC_NODE":271.1347,"ARG_OF_PERICENTER":264.6875,"MEAN_ANOMALY":95.4054,"EPHEMERIS_TYPE":0,"NORAD_CAT_ID":66718,"ELEMENT_SET_NO":999,"REV_AT_EPOCH":3496,"BSTAR":0.00018003024,"MEAN_MOTION_DOT":0.00003798,"MEAN_MOTION_DDOT":0}]}
